[{"OBJECT_NAME":"TIANMU-1 10","OBJECT_ID":"2023-101D","EPOCH":"2026-03-09T23:06:46.939392","MEAN_MOTION":15.2921896,"ECCENTRICITY":0.00069292,"INCLINATION":97.2749,"RA_OF_ASC_NODE":122.1027,"ARG_OF_PERICENTER":133.6162,"MEAN_ANOMALY":226.5654,"EPHEMERIS_TYPE":0,"CLASSIFICATION_TYPE":"U","NORAD_CAT_ID":57402,"ELEMENT_SET_NO":999,"REV_AT_EPOCH":14647,"BSTAR":0.00032238884,"MEAN_MOTION_DOT":9.075e-5,"MEAN_MOTION_DDOT":0},{"OBJECT_NAME":"STARLINK-32223","OBJECT_ID":"2024-138U","EPOCH":"2026-03-09T22:22:21.784512","MEAN_MOTION":15.30180186,"ECCENTRICITY":9.76e-5,"INCLINATION":53.1622,"RA_OF_ASC_NODE":308.5539,"ARG_OF_PERICENTER":63.0345,"MEAN_ANOMALY":297.0755,"EPHEMERIS_TYPE":0,"CLASSIFICATION_TYPE":"U","NORAD_CAT_ID":60373,"ELEMENT_SET_NO":999,"REV_AT_EPOCH":9056,"BSTAR":-3.4456639e-5,"MEAN_MOTION_DOT":-1.379e-5,"MEAN_MOTION_DDOT":0}]
